[{"OBJECT_NAME":"STARLINK-36518","OBJECT_ID":"2026-008J","EPOCH":"2026-03-09T10:47:08.437344","MEAN_MOTION":15.27570262,"ECCENTRICITY":0.00022514,"INCLINATION":43.0009,"RA_OF_ASC_NODE":206.7192,"ARG_OF_PERICENTER":268.7225,"MEAN_ANOMALY":91.3369,"EPHEMERIS_TYPE":0,"CLASSIFICATION_TYPE":"U","NORAD_CAT_ID":67453,"ELEMENT_SET_NO":999,"REV_AT_EPOCH":953,"BSTAR":0.0015077101,"MEAN_MOTION_DOT":0.00041449,"MEAN_MOTION_DDOT":0},{"OBJECT_NAME":"FENGYUN 1C DEB","OBJECT_ID":"1999-025AQG","EPOCH":"2026-03-09T10:43:06.043872","MEAN_MOTION":15.25746961,"ECCENTRICITY":0.00178142,"INCLINATION":98.9311,"RA_OF_ASC_NODE":250.2123,"ARG_OF_PERICENTER":328.3876,"MEAN_ANOMALY":31.6286,"EPHEMERIS_TYPE":0,"CLASSIFICATION_TYPE":"U","NORAD_CAT_ID":30674,"ELEMENT_SET_NO":999,"REV_AT_EPOCH":98658,"BSTAR":0.015201752,"MEAN_MOTION_DOT":0.00411052,"MEAN_MOTION_DDOT":0}]
